CTC1_L_00471125-01
1 83501U 26290OI  26070.40837963  .00000000  00000+0  00000-0 0  9990
2 83501  99.9000 297.6000 0000000   0.0000 235.2000 13.42494874    19
CTC1_L_00471125-02
1 83502U 23077KG  26070.40837963  .00000000  00000+0  00000-0 0  9991
2 83502  99.9000 297.6000 0000000   0.0000  55.2000 13.42494874    10
CTC1_L_00471126-01
1 83503U 24711HZ  26070.40837963  .00000000  00000+0  00000-0 0  9998
2 83503  99.9000 300.0000 0000000   0.0000 240.0000 13.42494874    14
CTC1_L_00471126-02
1 83504U 26904HZ  26070.40837963  .00000000  00000+0  00000-0 0  9995
2 83504  99.9000 300.0000 0000000   0.0000  60.0000 13.42494874    15
CTC1_L_00471127-01
1 83505U 25322MC  26070.40837963  .00000000  00000+0  00000-0 0  9999
2 83505  99.9000 302.4000 0000000   0.0000 244.8000 13.42494874    14
CTC1_L_00471127-02
1 83506U 24951MV  26070.40837963  .00000000  00000+0  00000-0 0  9997
2 83506  99.9000 302.4000 0000000   0.0000  64.8000 13.42494874    15
CTC1_L_00471128-01
1 83507U 25733HT  26070.40837963  .00000000  00000+0  00000-0 0  9997
2 83507  99.9000 304.8000 0000000   0.0000 249.6000 13.42494874    15
CTC1_L_00471128-02
1 83508U 25951TJ  26070.40837963  .00000000  00000+0  00000-0 0  9990
2 83508  99.9000 304.8000 0000000   0.0000  69.6000 13.42494874    16
CTC1_L_00471129-01
1 83509U 26262YW  26070.40837963  .00000000  00000+0  00000-0 0  9997
2 83509  99.9000 307.2000 0000000   0.0000 254.4000 13.42494874    18
CTC1_L_00471129-02
1 83510U 24469RV  26070.40837963  .00000000  00000+0  00000-0 0  9996
2 83510  99.9000 307.2000 0000000   0.0000  74.4000 13.42494874    10
CTC1_L_00471130-01
1 83511U 22163PO  26070.40837963  .00000000  00000+0  00000-0 0  9996
2 83511  99.9000 309.6000 0000000   0.0000 259.2000 13.42494874    10
CTC1_L_00471130-02
1 83512U 24081DI  26070.40837963  .00000000  00000+0  00000-0 0  9998
2 83512  99.9000 309.6000 0000000   0.0000  79.2000 13.42494874    11
CTC1_L_00471131-01
1 83513U 25313RE  26070.40837963  .00000000  00000+0  00000-0 0  9998
2 83513  99.9000 312.0000 0000000   0.0000 264.0000 13.42494874    14
CTC1_L_00471131-02
1 83514U 22680TW  26070.40837963  .00000000  00000+0  00000-0 0  9993
2 83514  99.9000 312.0000 0000000   0.0000  84.0000 13.42494874    15
CTC1_L_00471132-01
1 83515U 25759FW  26070.40837963  .00000000  00000+0  00000-0 0  9994
2 83515  99.9000 314.4000 0000000   0.0000 268.8000 13.42494874    14
CTC1_L_00471132-02
1 83516U 22599KN  26070.40837963  .00000000  00000+0  00000-0 0  9994
2 83516  99.9000 314.4000 0000000   0.0000  88.8000 13.42494874    15
CTC1_L_00471133-01
1 83517U 22115GT  26070.40837963  .00000000  00000+0  00000-0 0  9999
2 83517  99.9000 316.8000 0000000   0.0000 273.6000 13.42494874    16
CTC1_L_00471133-02
1 83518U 22063II  26070.40837963  .00000000  00000+0  00000-0 0  9992
2 83518  99.9000 316.8000 0000000   0.0000  93.6000 13.42494874    17
CTC1_L_00471134-01
1 83519U 25237SQ  26070.40837963  .00000000  00000+0  00000-0 0  9999
2 83519  99.9000 319.2000 0000000   0.0000 278.4000 13.42494874    18
CTC1_L_00471134-02
1 83520U 24442GG  26070.40837963  .00000000  00000+0  00000-0 0  9998
2 83520  99.9000 319.2000 0000000   0.0000  98.4000 13.42494874    10
CTC1_L_00471135-01
1 83521U 24282FW  26070.40837963  .00000000  00000+0  00000-0 0  9991
2 83521  99.9000 321.6000 0000000   0.0000 283.2000 13.42494874    12
CTC1_L_00471135-02
1 83522U 23771CN  26070.40837963  .00000000  00000+0  00000-0 0  9994
2 83522  99.9000 321.6000 0000000   0.0000 103.2000 13.42494874    14
CTC1_L_00471136-01
1 83523U 24554LV  26070.40837963  .00000000  00000+0  00000-0 0  9995
2 83523  99.9000 324.0000 0000000   0.0000 288.0000 13.42494874    14
CTC1_L_00471136-02
1 83524U 22991UR  26070.40837963  .00000000  00000+0  00000-0 0  9999
2 83524  99.9000 324.0000 0000000   0.0000 108.0000 13.42494874    16
CTC1_L_00471137-01
1 83525U 24152OT  26070.40837963  .00000000  00000+0  00000-0 0  9991
2 83525  99.9000 326.4000 0000000   0.0000 292.8000 13.42494874    15
CTC1_L_00471137-02
1 83526U 24396PE  26070.40837963  .00000000  00000+0  00000-0 0  9992
2 83526  99.9000 326.4000 0000000   0.0000 112.8000 13.42494874    17
CTC1_L_00471138-01
1 83527U 25957RT  26070.40837963  .00000000  00000+0  00000-0 0  9997
2 83527  99.9000 328.8000 0000000   0.0000 297.6000 13.42494874    16
CTC1_L_00471138-02
1 83528U 23492IH  26070.40837963  .00000000  00000+0  00000-0 0  9990
2 83528  99.9000 328.8000 0000000   0.0000 117.6000 13.42494874    18
CTC1_L_00471139-01
1 83529U 22650LR  26070.40837963  .00000000  00000+0  00000-0 0  9996
2 83529  99.9000 331.2000 0000000   0.0000 302.4000 13.42494874    11
CTC1_L_00471139-02
1 83530U 22310ZD  26070.40837963  .00000000  00000+0  00000-0 0  9991
2 83530  99.9000 331.2000 0000000   0.0000 122.4000 13.42494874    13
CTC1_L_00471140-01
1 83531U 26746XQ  26070.40837963  .00000000  00000+0  00000-0 0  9999
2 83531  99.9000 333.6000 0000000   0.0000 307.2000 13.42494874    13
CTC1_L_00471140-02
1 83532U 23117TS  26070.40837963  .00000000  00000+0  00000-0 0  9999
2 83532  99.9000 333.6000 0000000   0.0000 127.2000 13.42494874    14
CTC1_L_00471141-01
1 83533U 22685OK  26070.40837963  .00000000  00000+0  00000-0 0  9999
2 83533  99.9000 336.0000 0000000   0.0000 312.0000 13.42494874    16
CTC1_L_00471141-02
1 83534U 22604CI  26070.40837963  .00000000  00000+0  00000-0 0  9991
2 83534  99.9000 336.0000 0000000   0.0000 132.0000 13.42494874    17
CTC1_L_00471142-01
1 83535U 24125LN  26070.40837963  .00000000  00000+0  00000-0 0  9992
2 83535  99.9000 338.4000 0000000   0.0000 316.8000 13.42494874    16
CTC1_L_00471142-02
1 83536U 24257VY  26070.40837963  .00000000  00000+0  00000-0 0  9999
2 83536  99.9000 338.4000 0000000   0.0000 136.8000 13.42494874    17
CTC1_L_00471143-01
1 83537U 22700RG  26070.40837963  .00000000  00000+0  00000-0 0  9991
2 83537  99.9000 340.8000 0000000   0.0000 321.6000 13.42494874    19
CTC1_L_00471143-02
1 83538U 25734OH  26070.40837963  .00000000  00000+0  00000-0 0  9992
2 83538  99.9000 340.8000 0000000   0.0000 141.6000 13.42494874    10
CTC1_L_00471144-01
1 83539U 22203YY  26070.40837963  .00000000  00000+0  00000-0 0  9991
2 83539  99.9000 343.2000 0000000   0.0000 326.4000 13.42494874    11
CTC1_L_00471144-02
1 83540U 24535UE  26070.40837963  .00000000  00000+0  00000-0 0  9993
2 83540  99.9000 343.2000 0000000   0.0000 146.4000 13.42494874    13
CTC1_L_00471145-01
1 83541U 26488AH  26070.40837963  .00000000  00000+0  00000-0 0  9993
2 83541  99.9000 345.6000 0000000   0.0000 331.2000 13.42494874    14
CTC1_L_00471145-02
1 83542U 22160GA  26070.40837963  .00000000  00000+0  00000-0 0  9997
2 83542  99.9000 345.6000 0000000   0.0000 151.2000 13.42494874    15
CTC1_L_00471146-01
1 83543U 24549SE  26070.40837963  .00000000  00000+0  00000-0 0  9991
2 83543  99.9000 348.0000 0000000   0.0000 336.0000 13.42494874    16
CTC1_L_00471146-02
1 83544U 23546JS  26070.40837963  .00000000  00000+0  00000-0 0  9998
2 83544  99.9000 348.0000 0000000   0.0000 156.0000 13.42494874    17
CTC1_L_00471147-01
1 83545U 26871I   26070.40837963  .00000000  00000+0  00000-0 0  9993
2 83545  99.9000 350.4000 0000000   0.0000 340.8000 13.42494874    18
CTC1_L_00471147-02
1 83546U 26443NR  26070.40837963  .00000000  00000+0  00000-0 0  9999
2 83546  99.9000 350.4000 0000000   0.0000 160.8000 13.42494874    19
CTC1_L_00471148-01
1 83547U 25826RZ  26070.40837963  .00000000  00000+0  00000-0 0  9994
2 83547  99.9000 352.8000 0000000   0.0000 345.6000 13.42494874    19
CTC1_L_00471148-02
1 83548U 22622P   26070.40837963  .00000000  00000+0  00000-0 0  9996
2 83548  99.9000 352.8000 0000000   0.0000 165.6000 13.42494874    10
CTC1_L_00471149-01
1 83549U 25698MM  26070.40837963  .00000000  00000+0  00000-0 0  9993
2 83549  99.9000 355.2000 0000000   0.0000 350.4000 13.42494874    12
CTC1_L_00471149-02
1 83550U 25071PJ  26070.40837963  .00000000  00000+0  00000-0 0  9990
2 83550  99.9000 355.2000 0000000   0.0000 170.4000 13.42494874    14
CTC1_L_00471150-01
1 83551U 26455JW  26070.40837963  .00000000  00000+0  00000-0 0  9998
2 83551  99.9000 357.6000 0000000   0.0000 355.2000 13.42494874    14
CTC1_L_00471150-02
1 83552U 22913XE  26070.40837963  .00000000  00000+0  00000-0 0  9994
2 83552  99.9000 357.6000 0000000   0.0000 175.2000 13.42494874    15
